OBJECT_NAME,OBJECT_ID,EPOCH,MEAN_MOTION,ECCENTRICITY,INCLINATION,RA_OF_ASC_NODE,ARG_OF_PERICENTER,MEAN_ANOMALY,EPHEMERIS_TYPE,CLASSIFICATION_TYPE,NORAD_CAT_ID,ELEMENT_SET_NO,REV_AT_EPOCH,BSTAR,MEAN_MOTION_DOT,MEAN_MOTION_DDOT
GALAXY 3C (G-3C),2002-030A,2026-06-05T21:37:15.892896,1.00271858,.00019161,3.7011,78.1277,30.0948,15.5711,0,U,27445,999,4638,0,-.14E-5,0
INTELSAT 906 (IS-906),2002-041A,2026-06-05T19:57:21.767616,1.00270686,.00046992,5.7751,73.0591,357.6074,187.0703,0,U,27513,999,8691,0,.25E-6,0
NIMIQ 2,2002-062A,2026-06-05T20:09:47.498976,1.00272146,.00058714,9.4197,57.0201,14.5678,15.9339,0,U,27632,999,4407,0,-.59E-6,0
USA 167,2003-008A,2026-06-05T06:48:38.695680,1.00274694,.00040927,10.9375,43.5144,316.7807,233.8431,0,U,27691,999,665,0,.12E-6,0
USA 169 (MILSTAR-2 4),2003-012A,2026-06-05T22:47:47.076288,1.00271279,.01012352,12.3323,29.9317,8.7894,349.7403,0,U,27711,999,3283,0,-.227E-5,0
ASIASAT 4,2003-014A,2026-06-05T15:15:38.621952,1.00270914,.00028676,4.6760,75.8880,4.0726,190.5427,0,U,27718,999,4518,0,-.21E-5,0
HELLAS-SAT 2,2003-020A,2026-06-05T23:44:10.801824,1.00272139,.00027641,7.3265,68.0173,3.9864,168.4525,0,U,27811,999,4273,0,-.72E-6,0
THURAYA-2,2003-026A,2026-06-05T18:10:08.544576,1.00272075,.00032602,8.8234,32.0283,2.1973,176.4856,0,U,27825,999,8423,0,.135E-5,0
OPTUS C1,2003-028B,2026-06-05T14:42:42.304896,1.00270675,.00058233,6.8604,69.5492,0.9482,199.9354,0,U,27831,999,5294,0,-.14E-5,0
USA 170,2003-040A,2026-06-04T19:47:04.795584,1.00277379,.00021217,10.4740,48.0645,31.6674,134.5548,0,U,27875,999,3287,0,.135E-5,0
GALAXY 13 (HORIZONS-1),2003-044A,2026-06-06T02:29:31.700832,1.00272238,.00020782,1.3916,83.9914,344.8405,73.0561,0,U,27954,999,4646,0,.145E-5,0
YAMAL 202,2003-053A,2026-06-05T14:47:21.750144,1.00272806,.00033267,6.3158,71.0752,345.0447,223.3502,0,U,28089,999,8258,0,-.68E-6,0
UFO 11 (USA 174),2003-057A,2026-06-05T17:44:36.119616,1.00274267,.00024038,8.9311,33.8888,36.0841,165.8836,0,U,28117,999,8233,0,-.95E-6,0
USA 176 (DSP 22),2004-004A,2026-06-06T01:14:36.883392,1.00409510,.00011262,12.0469,26.1515,308.6619,245.6777,0,U,28158,999,3282,0,-.287E-5,0
ABS-4 (MOBISAT-1),2004-007A,2026-06-05T19:39:49.036320,1.00270964,.00053942,6.0127,72.1446,2.6256,175.3981,0,U,28184,999,5222,0,.51E-6,0
INTELSAT 10-02,2004-022A,2026-06-06T03:12:03.891168,1.00269853,.00003034,0.0049,328.1828,180.6947,152.6898,0,U,28358,999,8044,0,.2E-7,0
ANIK F2,2004-027A,2026-06-06T02:40:38.136000,1.00271961,.00044336,3.2577,79.5928,0.9800,102.9933,0,U,28378,999,4115,0,-.37E-6,0
AMC-15,2004-041A,2026-06-06T02:42:22.968576,1.00272419,.00023967,0.0293,305.1376,131.8950,113.0523,0,U,28446,999,7919,0,-.76E-6,0
NSS-10,2005-003A,2026-06-06T03:01:15.147264,1.00272615,.00031179,6.4213,70.5876,1.9719,189.8556,0,U,28526,999,5304,0,-.239E-5,0
INMARSAT 4-F1,2005-009A,2026-06-05T21:12:30.379680,1.00271897,.00029033,5.1522,42.7357,35.8787,311.9436,0,U,28628,999,7755,0,.44E-6,0
DIRECTV 8,2005-019A,2026-06-06T03:13:38.698752,1.00269704,.00030542,0.0170,346.9282,92.6638,104.3254,0,U,28659,999,7696,0,0,0
GALAXY 28 (G-28),2005-022A,2026-06-06T01:21:58.676832,1.00270901,.00027511,3.2710,79.0650,355.0025,173.7972,0,U,28702,999,5186,0,-.188E-5,0
THAICOM 4,2005-028A,2026-06-06T00:20:54.585888,1.00271966,.00020461,0.2159,86.1016,345.7831,307.2948,0,U,28786,999,5213,0,-.349E-5,0
ANIK F1R,2005-036A,2026-06-05T21:33:46.227744,1.00272862,.00044324,4.2833,76.7193,1.7548,32.0117,0,U,28868,999,4634,0,-.63E-6,0
SYRACUSE 3A,2005-041B,2026-06-06T00:07:38.923104,1.00269966,.00031226,4.6154,75.9729,336.5359,250.4763,0,U,28885,999,7563,0,.142E-5,0
INMARSAT 4-F2,2005-044A,2026-06-05T22:45:09.827424,1.00271038,.0003211,5.0795,43.7123,31.0156,304.4236,0,U,28899,999,7540,0,-.249E-5,0
METEOSAT-9 (MSG-2),2005-049B,2026-06-05T20:15:21.955104,1.00267887,.00023261,9.3350,54.2780,40.8445,148.6919,0,U,28912,999,688,0,.135E-5,0
EUTELSAT 174A,2005-052A,2026-06-06T02:19:17.682816,1.00269605,.00065061,4.1908,76.6627,359.0160,27.6700,0,U,28924,999,5222,0,.21E-6,0
ECHOSTAR 10,2006-003A,2026-06-05T09:34:14.248992,1.00272133,.00014333,0.0172,339.0516,94.6497,213.5027,0,U,28935,999,7434,0,-.43E-6,0
SPAINSAT,2006-007A,2026-06-05T09:05:43.564416,1.00273583,.0005058,0.5320,86.7448,346.3258,286.9896,0,U,28945,999,7410,0,-.204E-5,0
JCSAT-5A,2006-010A,2026-06-06T00:24:39.226752,1.00271836,.00021693,1.0798,84.3425,5.3559,302.9596,0,U,29045,999,7365,0,-.315E-5,0
ASTRA 1KR,2006-012A,2026-06-06T03:46:38.642016,1.00271784,.00036577,0.4447,83.2056,349.3217,257.7094,0,U,29055,999,4558,0,.132E-5,0
