GALAXY 3C (G-3C)        
1 27445U 02030A   26156.90087839 -.00000140  00000+0  00000+0 0  9995
2 27445   3.7011  78.1277 0001916  30.0948  15.5711  1.00271858 46382
INTELSAT 906 (IS-906)   
1 27513U 02041A   26156.83150194  .00000025  00000+0  00000+0 0  9991
2 27513   5.7751  73.0591 0004699 357.6074 187.0703  1.00270686 86910
NIMIQ 2                 
1 27632U 02062A   26156.84013309 -.00000059  00000+0  00000+0 0  9991
2 27632   9.4197  57.0201 0005871  14.5678  15.9339  1.00272146 44077
USA 167                 
1 27691U 03008A   26156.28378120  .00000012  00000+0  00000+0 0  9998
2 27691  10.9375  43.5144 0004092 316.7807 233.8431  1.00274694  6654
USA 169 (MILSTAR-2 4)   
1 27711U 03012A   26156.94985042 -.00000227  00000+0  00000+0 0  9995
2 27711  12.3323  29.9317 0101235   8.7894 349.7403  1.00271279 32838
ASIASAT 4               
1 27718U 03014A   26156.63586368 -.00000210  00000+0  00000+0 0  9990
2 27718   4.6760  75.8880 0002867   4.0726 190.5427  1.00270914 45188
HELLAS-SAT 2            
1 27811U 03020A   26156.98901391 -.00000072  00000+0  00000+0 0  9992
2 27811   7.3265  68.0173 0002764   3.9864 168.4525  1.00272139 42730
THURAYA-2               
1 27825U 03026A   26156.75704334  .00000135  00000+0  00000+0 0  9995
2 27825   8.8234  32.0283 0003260   2.1973 176.4856  1.00272075 84230
OPTUS C1                
1 27831U 03028B   26156.61298964 -.00000140  00000+0  00000+0 0  9993
2 27831   6.8604  69.5492 0005823   0.9482 199.9354  1.00270675 52941
USA 170                 
1 27875U 03040A   26155.82436106  .00000135  00000+0  00000+0 0  9992
2 27875  10.4740  48.0645 0002121  31.6674 134.5548  1.00277379 32873
GALAXY 13 (HORIZONS-1)  
1 27954U 03044A   26157.10383913  .00000145  00000+0  00000+0 0  9995
2 27954   1.3916  83.9914 0002078 344.8405  73.0561  1.00272238 46465
YAMAL 202               
1 28089U 03053A   26156.61622396 -.00000068  00000+0  00000+0 0  9996
2 28089   6.3158  71.0752 0003326 345.0447 223.3502  1.00272806 82581
UFO 11 (USA 174)        
1 28117U 03057A   26156.73930694 -.00000095  00000+0  00000+0 0  9998
2 28117   8.9311  33.8888 0002403  36.0841 165.8836  1.00274267 82334
USA 176 (DSP 22)        
1 28158U 04004A   26157.05181578 -.00000287  00000+0  00000+0 0  9994
2 28158  12.0469  26.1515 0001126 308.6619 245.6777  1.00409510 32824
ABS-4 (MOBISAT-1)       
1 28184U 04007A   26156.81931755  .00000051  00000+0  00000+0 0  9997
2 28184   6.0127  72.1446 0005394   2.6256 175.3981  1.00270964 52221
INTELSAT 10-02          
1 28358U 04022A   26157.13337837  .00000002  00000+0  00000+0 0  9990
2 28358   0.0049 328.1828 0000303 180.6947 152.6898  1.00269853 80443
ANIK F2                 
1 28378U 04027A   26157.11155250 -.00000037  00000+0  00000+0 0  9991
2 28378   3.2577  79.5928 0004433   0.9800 102.9933  1.00271961 41150
AMC-15                  
1 28446U 04041A   26157.11276584 -.00000076  00000+0  00000+0 0  9990
2 28446   0.0293 305.1376 0002396 131.8950 113.0523  1.00272419 79199
NSS-10                  
1 28526U 05003A   26157.12586976 -.00000239  00000+0  00000+0 0  9999
2 28526   6.4213  70.5876 0003117   1.9719 189.8556  1.00272615 53041
INMARSAT 4-F1           
1 28628U 05009A   26156.88368495  .00000044  00000+0  00000+0 0  9997
2 28628   5.1522  42.7357 0002903  35.8787 311.9436  1.00271897 77559
DIRECTV 8               
1 28659U 05019A   26157.13447568  .00000000  00000+0  00000+0 0  9992
2 28659   0.0170 346.9282 0003054  92.6638 104.3254  1.00269704 76966
GALAXY 28 (G-28)        
1 28702U 05022A   26157.05692913 -.00000188  00000+0  00000+0 0  9990
2 28702   3.2710  79.0650 0002751 355.0025 173.7972  1.00270901 51862
THAICOM 4               
1 28786U 05028A   26157.01452067 -.00000349  00000+0  00000+0 0  9997
2 28786   0.2159  86.1016 0002046 345.7831 307.2948  1.00271966 52131
ANIK F1R                
1 28868U 05036A   26156.89845171 -.00000063  00000+0  00000+0 0  9997
2 28868   4.2833  76.7193 0004432   1.7548  32.0117  1.00272862 46344
SYRACUSE 3A             
1 28885U 05041B   26157.00531161  .00000142  00000+0  00000+0 0  9994
2 28885   4.6154  75.9729 0003122 336.5359 250.4763  1.00269966 75631
INMARSAT 4-F2           
1 28899U 05044A   26156.94803041 -.00000249  00000+0  00000+0 0  9992
2 28899   5.0795  43.7123 0003211  31.0156 304.4236  1.00271038 75407
METEOSAT-9 (MSG-2)      
1 28912U 05049B   26156.84400411  .00000135  00000+0  00000+0 0  9999
2 28912   9.3350  54.2780 0002326  40.8445 148.6919  1.00267887  6887
EUTELSAT 174A           
1 28924U 05052A   26157.09673244  .00000021  00000+0  00000+0 0  9994
2 28924   4.1908  76.6627 0006506 359.0160  27.6700  1.00269605 52226
ECHOSTAR 10             
1 28935U 06003A   26156.39877603 -.00000043  00000+0  00000+0 0  9995
2 28935   0.0172 339.0516 0001433  94.6497 213.5027  1.00272133 74343
SPAINSAT                
1 28945U 06007A   26156.37897644 -.00000204  00000+0  00000+0 0  9994
2 28945   0.5320  86.7448 0005058 346.3258 286.9896  1.00273583 74105
JCSAT-5A                
1 29045U 06010A   26157.01712068 -.00000315  00000+0  00000+0 0  9991
2 29045   1.0798  84.3425 0002169   5.3559 302.9596  1.00271836 73651
ASTRA 1KR               
1 29055U 06012A   26157.15739169  .00000132  00000+0  00000+0 0  9996
2 29055   0.4447  83.2056 0003657 349.3217 257.7094  1.00271784 45582
